start=new Date('2021-11-09T00:00:00.000Z').valueOf();
sats=[{"SEMIMAJOR_AXIS":"6925.484","REF_FRAME":"TEME","MEAN_MOTION":"15.06355655","ARG_OF_PERICENTER":"73.8181","REV_AT_EPOCH":"4234","MEAN_MOTION_DDOT":"0.0000000000000","CENTER_NAME":"EARTH","GP_ID":"189302150","MEAN_ELEMENT_THEORY":"SGP4","OBJECT_ID":"2021-009R","RA_OF_ASC_NODE":"283.6530","RCS_SIZE":"LARGE","TLE_LINE2":"2 47563  53.0562 283.6530 0001164  73.8181 286.2936 15.06355655 42345","PERIOD":"95.595","OBJECT_NAME":"STARLINK-1962","APOAPSIS":"548.156","EPHEMERIS_TYPE":"0","INCLINATION":"53.0562","TIME_SYSTEM":"UTC","EPOCH":"2021-11-08T15:42:05.543712","NORAD_CAT_ID":"47563","PERIAPSIS":"546.543","COUNTRY_CODE":"US","OBJECT_TYPE":"PAYLOAD","DECAY_DATE":null,"MEAN_MOTION_DOT":"-0.00001026","ECCENTRICITY":"0.00011640","FILE":"3209620","BSTAR":"-0.00005007200000","SITE":"AFETR","CLASSIFICATION_TYPE":"U","MEAN_ANOMALY":"286.2936","TLE_LINE1":"1 47563U 21009R   21312.65423083 -.00001026  00000-0 -50072-4 0  9996","LAUNCH_DATE":"2021-02-04","ELEMENT_SET_NO":"999"},{"PERIAPSIS":"546.111","COUNTRY_CODE":"US","NORAD_CAT_ID":"47564","TIME_SYSTEM":"UTC","EPOCH":"2021-11-08T06:10:07.977792","APOAPSIS":"548.415","EPHEMERIS_TYPE":"0","INCLINATION":"53.0552","PERIOD":"95.593","OBJECT_NAME":"STARLINK-1963","TLE_LINE2":"2 47564  53.0552 275.4335 0001664  67.4951 292.6214 15.06383896 43020","RCS_SIZE":"LARGE","RA_OF_ASC_NODE":"275.4335","OBJECT_ID":"2021-009S","MEAN_MOTION_DDOT":"0.0000000000000","CENTER_NAME":"EARTH","GP_ID":"189278922","MEAN_ELEMENT_THEORY":"SGP4","ARG_OF_PERICENTER":"67.4951","REV_AT_EPOCH":"4302","MEAN_MOTION":"15.06383896","REF_FRAME":"TEME","SEMIMAJOR_AXIS":"6925.398","ELEMENT_SET_NO":"999","LAUNCH_DATE":"2021-02-04","TLE_LINE1":"1 47564U 21009S   21312.25703678  .00003336  00000-0  24283-3 0  9992","MEAN_ANOMALY":"292.6214","CLASSIFICATION_TYPE":"U","BSTAR":"0.00024283000000","SITE":"AFETR","FILE":"3209508","ECCENTRICITY":"0.00016640","MEAN_MOTION_DOT":"0.00003336","DECAY_DATE":null,"OBJECT_TYPE":"PAYLOAD"},{"EPHEMERIS_TYPE":"0","INCLINATION":"53.0549","APOAPSIS":"548.256","PERIAPSIS":"546.200","COUNTRY_CODE":"US","EPOCH":"2021-11-08T07:40:20.832384","TIME_SYSTEM":"UTC","NORAD_CAT_ID":"47565","RCS_SIZE":"LARGE","RA_OF_ASC_NODE":"275.1504","OBJECT_NAME":"STARLINK-1964","PERIOD":"95.592","TLE_LINE2":"2 47565  53.0549 275.1504 0001485  64.7563 295.3580 15.06395294 42437","MEAN_MOTION":"15.06395294","REV_AT_EPOCH":"4243","ARG_OF_PERICENTER":"64.7563","OBJECT_ID":"2021-009T","GP_ID":"189303152","MEAN_ELEMENT_THEORY":"SGP4","CENTER_NAME":"EARTH","MEAN_MOTION_DDOT":"0.0000000000000","SEMIMAJOR_AXIS":"6925.363","REF_FRAME":"TEME","LAUNCH_DATE":"2021-02-04","TLE_LINE1":"1 47565U 21009T   21312.31968556  .00001029  00000-0  88002-4 0  9995","ELEMENT_SET_NO":"999","CLASSIFICATION_TYPE":"U","MEAN_ANOMALY":"295.3580","FILE":"3209620","ECCENTRICITY":"0.00014850","MEAN_MOTION_DOT":"0.00001029","SITE":"AFETR","BSTAR":"0.00008800200000","OBJECT_TYPE":"PAYLOAD","DECAY_DATE":null},{"TLE_LINE2":"2 47566  53.0543 265.4731 0001400  68.4751 291.6388 15.06406660 42562","OBJECT_NAME":"STARLINK-1965","PERIOD":"95.592","RA_OF_ASC_NODE":"265.4731","RCS_SIZE":"LARGE","NORAD_CAT_ID":"47566","TIME_SYSTEM":"UTC","EPOCH":"2021-11-08T05:55:31.913760","PERIAPSIS":"546.224","COUNTRY_CODE":"US","INCLINATION":"53.0543","EPHEMERIS_TYPE":"0","APOAPSIS":"548.163","REF_FRAME":"TEME","SEMIMAJOR_AXIS":"6925.328","GP_ID":"189271413","MEAN_ELEMENT_THEORY":"SGP4","MEAN_MOTION_DDOT":"0.0000000000000","CENTER_NAME":"EARTH","OBJECT_ID":"2021-009U","ARG_OF_PERICENTER":"68.4751","MEAN_MOTION":"15.06406660","REV_AT_EPOCH":"4256","MEAN_ANOMALY":"291.6388","CLASSIFICATION_TYPE":"U","ELEMENT_SET_NO":"999","TLE_LINE1":"1 47566U 21009U   21312.24689715  .00014110  00000-0  96407-3 0  9997","LAUNCH_DATE":"2021-02-04","DECAY_DATE":null,"OBJECT_TYPE":"PAYLOAD","SITE":"AFETR","BSTAR":"0.00096407000000","MEAN_MOTION_DOT":"0.00014110","ECCENTRICITY":"0.00014000","FILE":"3209238"},{"REF_FRAME":"TEME","SEMIMAJOR_AXIS":"6925.361","CENTER_NAME":"EARTH","MEAN_MOTION_DDOT":"0.0000000000000","GP_ID":"189302650","MEAN_ELEMENT_THEORY":"SGP4","OBJECT_ID":"2021-009V","MEAN_MOTION":"15.06395897","ARG_OF_PERICENTER":"64.3560","REV_AT_EPOCH":"4206","TLE_LINE2":"2 47567  53.0550 303.5298 0001319  64.3560 295.7565 15.06395897 42061","PERIOD":"95.592","OBJECT_NAME":"STARLINK-1966","RA_OF_ASC_NODE":"303.5298","RCS_SIZE":"LARGE","NORAD_CAT_ID":"47567","TIME_SYSTEM":"UTC","EPOCH":"2021-11-08T16:21:51.115968","PERIAPSIS":"546.313","COUNTRY_CODE":"US","APOAPSIS":"548.140","INCLINATION":"53.0550","EPHEMERIS_TYPE":"0","DECAY_DATE":null,"OBJECT_TYPE":"PAYLOAD","SITE":"AFETR","BSTAR":"0.00029419000000","MEAN_MOTION_DOT":"0.00004103","FILE":"3209620","ECCENTRICITY":"0.00013190","MEAN_ANOMALY":"295.7565","CLASSIFICATION_TYPE":"U","ELEMENT_SET_NO":"999","TLE_LINE1":"1 47567U 21009V   21312.68184162  .00004103  00000-0  29419-3 0  9992","LAUNCH_DATE":"2021-02-04"},{"REF_FRAME":"TEME","SEMIMAJOR_AXIS":"6925.369","OBJECT_ID":"2021-009W","MEAN_ELEMENT_THEORY":"SGP4","GP_ID":"189302900","MEAN_MOTION_DDOT":"0.0000000000000","CENTER_NAME":"EARTH","MEAN_MOTION":"15.06393176","ARG_OF_PERICENTER":"76.8067","REV_AT_EPOCH":"4207","OBJECT_NAME":"STARLINK-1967","PERIOD":"95.593","TLE_LINE2":"2 47568  53.0533 303.4164 0001596  76.8067 283.3100 15.06393176 42078","RCS_SIZE":"LARGE","RA_OF_ASC_NODE":"303.4164","COUNTRY_CODE":"US","PERIAPSIS":"546.129","NORAD_CAT_ID":"47568","EPOCH":"2021-11-08T16:59:01.033440","TIME_SYSTEM":"UTC","EPHEMERIS_TYPE":"0","INCLINATION":"53.0533","APOAPSIS":"548.340","DECAY_DATE":null,"OBJECT_TYPE":"PAYLOAD","BSTAR":"0.00053762000000","SITE":"AFETR","ECCENTRICITY":"0.00015960","FILE":"3209620","MEAN_MOTION_DOT":"0.00007734","MEAN_ANOMALY":"283.3100","CLASSIFICATION_TYPE":"U","ELEMENT_SET_NO":"999","LAUNCH_DATE":"2021-02-04","TLE_LINE1":"1 47568U 21009W   21312.70765085  .00007734  00000-0  53762-3 0  9996"},{"CLASSIFICATION_TYPE":"U","MEAN_ANOMALY":"313.4688","LAUNCH_DATE":"2021-02-04","TLE_LINE1":"1 47569U 21009X   21312.62730281  .00220530  00000-0  85797-2 0  9991","ELEMENT_SET_NO":"999","OBJECT_TYPE":"PAYLOAD","DECAY_DATE":null,"FILE":"3209620","ECCENTRICITY":"0.00021750","MEAN_MOTION_DOT":"0.00220530","BSTAR":"0.00857970000000","SITE":"AFETR","RCS_SIZE":"LARGE","RA_OF_ASC_NODE":"277.6462","PERIOD":"94.451","OBJECT_NAME":"STARLINK-1968","TLE_LINE2":"2 47569  53.0530 277.6462 0002175  46.6490 313.4688 15.24600111 42434","APOAPSIS":"493.483","INCLINATION":"53.0530","EPHEMERIS_TYPE":"0","COUNTRY_CODE":"US","PERIAPSIS":"490.494","TIME_SYSTEM":"UTC","NORAD_CAT_ID":"47569","EPOCH":"2021-11-08T15:03:18.962784","SEMIMAJOR_AXIS":"6870.123","REF_FRAME":"TEME","MEAN_MOTION":"15.24600111","ARG_OF_PERICENTER":"46.6490","REV_AT_EPOCH":"4243","OBJECT_ID":"2021-009X","MEAN_MOTION_DDOT":"0.0000000000000","CENTER_NAME":"EARTH","MEAN_ELEMENT_THEORY":"SGP4","GP_ID":"189303652"},{"RCS_SIZE":"LARGE","RA_OF_ASC_NODE":"266.4293","PERIOD":"95.593","OBJECT_NAME":"STARLINK-1969","TLE_LINE2":"2 47570  53.0532 266.4293 0001324  64.1485 295.9641 15.06382623 42539","APOAPSIS":"548.184","EPHEMERIS_TYPE":"0","INCLINATION":"53.0532","COUNTRY_CODE":"US","PERIAPSIS":"546.350","NORAD_CAT_ID":"47570","TIME_SYSTEM":"UTC","EPOCH":"2021-11-08T00:52:59.673792","SEMIMAJOR_AXIS":"6925.402","REF_FRAME":"TEME","ARG_OF_PERICENTER":"64.1485","MEAN_MOTION":"15.06382623","REV_AT_EPOCH":"4253","OBJECT_ID":"2021-009Y","CENTER_NAME":"EARTH","MEAN_MOTION_DDOT":"0.0000000000000","MEAN_ELEMENT_THEORY":"SGP4","GP_ID":"189270914","CLASSIFICATION_TYPE":"U","MEAN_ANOMALY":"295.9641","LAUNCH_DATE":"2021-02-04","TLE_LINE1":"1 47570U 21009Y   21312.03680178  .00003075  00000-0  22532-3 0  9999","ELEMENT_SET_NO":"999","OBJECT_TYPE":"PAYLOAD","DECAY_DATE":null,"ECCENTRICITY":"0.00013240","FILE":"3209238","MEAN_MOTION_DOT":"0.00003075","SITE":"AFETR","BSTAR":"0.00022532000000"},{"MEAN_MOTION_DOT":"0.00000664","FILE":"3209620","ECCENTRICITY":"0.00013030","SITE":"AFETR","BSTAR":"0.00006347100000","OBJECT_TYPE":"PAYLOAD","DECAY_DATE":null,"TLE_LINE1":"1 47571U 21009Z   21312.31231456  .00000664  00000-0  63471-4 0  9991","LAUNCH_DATE":"2021-02-04","ELEMENT_SET_NO":"999","CLASSIFICATION_TYPE":"U","MEAN_ANOMALY":"294.3828","REV_AT_EPOCH":"4243","MEAN_MOTION":"15.06397804","ARG_OF_PERICENTER":"65.7297","GP_ID":"189302151","MEAN_ELEMENT_THEORY":"SGP4","CENTER_NAME":"EARTH","MEAN_MOTION_DDOT":"0.0000000000000","OBJECT_ID":"2021-009Z","SEMIMAJOR_AXIS":"6925.355","REF_FRAME":"TEME","EPHEMERIS_TYPE":"0","INCLINATION":"53.0559","APOAPSIS":"548.123","TIME_SYSTEM":"UTC","EPOCH":"2021-11-08T07:29:43.977984","NORAD_CAT_ID":"47571","COUNTRY_CODE":"US","PERIAPSIS":"546.318","RA_OF_ASC_NODE":"275.1885","RCS_SIZE":"LARGE","TLE_LINE2":"2 47571  53.0559 275.1885 0001303  65.7297 294.3828 15.06397804 42434","OBJECT_NAME":"STARLINK-1970","PERIOD":"95.592"},{"FILE":"3209620","ECCENTRICITY":"0.00016330","MEAN_MOTION_DOT":"0.00011099","SITE":"AFETR","BSTAR":"0.00076274000000","OBJECT_TYPE":"PAYLOAD","DECAY_DATE":null,"LAUNCH_DATE":"2021-02-04","TLE_LINE1":"1 47572U 21009AA  21312.62564436  .00011099  00000-0  76274-3 0  9991","ELEMENT_SET_NO":"999","CLASSIFICATION_TYPE":"U","MEAN_ANOMALY":"288.9087","REV_AT_EPOCH":"4248","ARG_OF_PERICENTER":"71.2079","MEAN_MOTION":"15.06406025","OBJECT_ID":"2021-009AA","MEAN_ELEMENT_THEORY":"SGP4","GP_ID":"189302401","CENTER_NAME":"EARTH","MEAN_MOTION_DDOT":"0.0000000000000","SEMIMAJOR_AXIS":"6925.330","REF_FRAME":"TEME","EPHEMERIS_TYPE":"0","INCLINATION":"53.0539","APOAPSIS":"548.326","PERIAPSIS":"546.064","COUNTRY_CODE":"US","EPOCH":"2021-11-08T15:00:55.672704","TIME_SYSTEM":"UTC","NORAD_CAT_ID":"47572","RCS_SIZE":"LARGE","RA_OF_ASC_NODE":"273.7652","OBJECT_NAME":"STARLINK-1971","PERIOD":"95.592","TLE_LINE2":"2 47572  53.0539 273.7652 0001633  71.2079 288.9087 15.06406025 42482"}];
